{
  "type": "FeatureCollection",
  "features": [
    {
      "type": "Feature",
      "properties": {
        "norad_id": 66530,
        "name": "STARLINK-35961",
        "group": "last-30-days",
        "lat": 25.331721172519142,
        "lon": -108.78622790533771,
        "alt_km": 346.72040995892803,
        "timestamp": "2025-12-04T15:47:52.869603+00:00",
        "meta_object_name": "STARLINK-35961",
        "meta_object_id": "2025-265Q",
        "meta_epoch": "2025-12-04T08:00:01.999872",
        "meta_mean_motion": 15.74430306,
        "meta_eccentricity": 0.00012257,
        "meta_inclination": 42.9996,
        "meta_ra_of_asc_node": 103.713,
        "meta_arg_of_pericenter": 279.3818,
        "meta_mean_anomaly": 178.7346,
        "meta_ephemeris_type": 0,
        "meta_classification_type": "U",
        "meta_norad_cat_id": 66530,
        "meta_element_set_no": 999,
        "meta_rev_at_epoch": 364,
        "meta_bstar": -0.013982092,
        "meta_mean_motion_dot": -0.01828771,
        "meta_mean_motion_ddot": 0,
        "tle_line1": "1 66530U 25265Q   25338.33335648 -.01828771  00000+0 -13982-1 0  9995",
        "tle_line2": "2 66530  42.9996 103.7130 0001225 279.3818 178.7346 15.74430306  3646"
      },
      "geometry": {
        "type": "Point",
        "coordinates": [
          -108.78622790533771,
          25.331721172519142
        ]
      }
    },
    {
      "type": "Feature",
      "properties": {
        "norad_id": 66531,
        "name": "STARLINK-35960",
        "group": "last-30-days",
        "lat": 24.199890476856783,
        "lon": -107.0952854588091,
        "alt_km": 346.7520037835138,
        "timestamp": "2025-12-04T15:47:52.869613+00:00",
        "meta_object_name": "STARLINK-35960",
        "meta_object_id": "2025-265R",
        "meta_epoch": "2025-12-04T08:00:01.999872",
        "meta_mean_motion": 15.74424976,
        "meta_eccentricity": 0.00013338,
        "meta_inclination": 42.9997,
        "meta_ra_of_asc_node": 103.708,
        "meta_arg_of_pericenter": 268.5616,
        "meta_mean_anomaly": 191.4681,
        "meta_ephemeris_type": 0,
        "meta_classification_type": "U",
        "meta_norad_cat_id": 66531,
        "meta_element_set_no": 999,
        "meta_rev_at_epoch": 364,
        "meta_bstar": -0.013872111,
        "meta_mean_motion_dot": -0.0181594,
        "meta_mean_motion_ddot": 0,
        "tle_line1": "1 66531U 25265R   25338.33335648 -.01815940  00000+0 -13872-1 0  9998",
        "tle_line2": "2 66531  42.9997 103.7080 0001333 268.5616 191.4681 15.74424976  3648"
      },
      "geometry": {
        "type": "Point",
        "coordinates": [
          -107.0952854588091,
          24.199890476856783
        ]
      }
    },
    {
      "type": "Feature",
      "properties": {
        "norad_id": 66532,
        "name": "STARLINK-35914",
        "group": "last-30-days",
        "lat": 23.052511788124743,
        "lon": -105.43840398167727,
        "alt_km": 346.6696572941846,
        "timestamp": "2025-12-04T15:47:52.869623+00:00",
        "meta_object_name": "STARLINK-35914",
        "meta_object_id": "2025-265S",
        "meta_epoch": "2025-12-04T08:00:01.999872",
        "meta_mean_motion": 15.74426722,
        "meta_eccentricity": 0.00011816,
        "meta_inclination": 42.9995,
        "meta_ra_of_asc_node": 103.7035,
        "meta_arg_of_pericenter": 261.2056,
        "meta_mean_anomaly": 200.7169,
        "meta_ephemeris_type": 0,
        "meta_classification_type": "U",
        "meta_norad_cat_id": 66532,
        "meta_element_set_no": 999,
        "meta_rev_at_epoch": 364,
        "meta_bstar": -0.013696499,
        "meta_mean_motion_dot": -0.01795848,
        "meta_mean_motion_ddot": 0,
        "tle_line1": "1 66532U 25265S   25338.33335648 -.01795848  00000+0 -13696-1 0  9997",
        "tle_line2": "2 66532  42.9995 103.7035 0001181 261.2056 200.7169 15.74426722  3642"
      },
      "geometry": {
        "type": "Point",
        "coordinates": [
          -105.43840398167727,
          23.052511788124743
        ]
      }
    },
    {
      "type": "Feature",
      "properties": {
        "norad_id": 66533,
        "name": "STARLINK-35707",
        "group": "last-30-days",
        "lat": 21.87821373870841,
        "lon": -103.79625620477371,
        "alt_km": 347.0027671499447,
        "timestamp": "2025-12-04T15:47:52.869633+00:00",
        "meta_object_name": "STARLINK-35707",
        "meta_object_id": "2025-265T",
        "meta_epoch": "2025-12-04T08:00:01.999872",
        "meta_mean_motion": 15.7443292,
        "meta_eccentricity": 0.00011061,
        "meta_inclination": 42.9995,
        "meta_ra_of_asc_node": 103.6987,
        "meta_arg_of_pericenter": 273.7285,
        "meta_mean_anomaly": 190.1077,
        "meta_ephemeris_type": 0,
        "meta_classification_type": "U",
        "meta_norad_cat_id": 66533,
        "meta_element_set_no": 999,
        "meta_rev_at_epoch": 364,
        "meta_bstar": -0.013746726,
        "meta_mean_motion_dot": -0.01801971,
        "meta_mean_motion_ddot": 0,
        "tle_line1": "1 66533U 25265T   25338.33335648 -.01801971  00000+0 -13747-1 0  9990",
        "tle_line2": "2 66533  42.9995 103.6987 0001106 273.7285 190.1077 15.74432920  3644"
      },
      "geometry": {
        "type": "Point",
        "coordinates": [
          -103.79625620477371,
          21.87821373870841
        ]
      }
    },
    {
      "type": "Feature",
      "properties": {
        "norad_id": 66534,
        "name": "STARLINK-35976",
        "group": "last-30-days",
        "lat": 20.686217476930405,
        "lon": -102.1781844511103,
        "alt_km": 347.59094161810117,
        "timestamp": "2025-12-04T15:47:52.869643+00:00",
        "meta_object_name": "STARLINK-35976",
        "meta_object_id": "2025-265U",
        "meta_epoch": "2025-12-04T08:00:01.999872",
        "meta_mean_motion": 15.74401943,
        "meta_eccentricity": 0.00016107,
        "meta_inclination": 42.9999,
        "meta_ra_of_asc_node": 103.6943,
        "meta_arg_of_pericenter": 281.9314,
        "meta_mean_anomaly": 183.861,
        "meta_ephemeris_type": 0,
        "meta_classification_type": "U",
        "meta_norad_cat_id": 66534,
        "meta_element_set_no": 999,
        "meta_rev_at_epoch": 364,
        "meta_bstar": -0.013648278,
        "meta_mean_motion_dot": -0.01788954,
        "meta_mean_motion_ddot": 0,
        "tle_line1": "1 66534U 25265U   25338.33335648 -.01788954  00000+0 -13648-1 0  9996",
        "tle_line2": "2 66534  42.9999 103.6943 0001610 281.9314 183.8610 15.74401943  3648"
      },
      "geometry": {
        "type": "Point",
        "coordinates": [
          -102.1781844511103,
          20.686217476930405
        ]
      }
    },
    {
      "type": "Feature",
      "properties": {
        "norad_id": 66535,
        "name": "STARLINK-35514",
        "group": "last-30-days",
        "lat": 19.48896246589809,
        "lon": -100.59928041915946,
        "alt_km": 347.7276325697021,
        "timestamp": "2025-12-04T15:47:52.869655+00:00",
        "meta_object_name": "STARLINK-35514",
        "meta_object_id": "2025-265V",
        "meta_epoch": "2025-12-04T08:00:01.999872",
        "meta_mean_motion": 15.74410291,
        "meta_eccentricity": 0.00015319,
        "meta_inclination": 42.9998,
        "meta_ra_of_asc_node": 103.6894,
        "meta_arg_of_pericenter": 285.7686,
        "meta_mean_anomaly": 181.9153,
        "meta_ephemeris_type": 0,
        "meta_classification_type": "U",
        "meta_norad_cat_id": 66535,
        "meta_element_set_no": 999,
        "meta_rev_at_epoch": 364,
        "meta_bstar": -0.013547188,
        "meta_mean_motion_dot": -0.01777856,
        "meta_mean_motion_ddot": 0,
        "tle_line1": "1 66535U 25265V   25338.33335648 -.01777856  00000+0 -13547-1 0  9994",
        "tle_line2": "2 66535  42.9998 103.6894 0001531 285.7686 181.9153 15.74410291  3646"
      },
      "geometry": {
        "type": "Point",
        "coordinates": [
          -100.59928041915946,
          19.48896246589809
        ]
      }
    },
    {
      "type": "Feature",
      "properties": {
        "norad_id": 66536,
        "name": "STARLINK-35640",
        "group": "last-30-days",
        "lat": 18.27026555912063,
        "lon": -99.03341026311803,
        "alt_km": 347.324536344624,
        "timestamp": "2025-12-04T15:47:52.869665+00:00",
        "meta_object_name": "STARLINK-35640",
        "meta_object_id": "2025-265W",
        "meta_epoch": "2025-12-04T08:00:01.999872",
        "meta_mean_motion": 15.74423536,
        "meta_eccentricity": 8.567e-05,
        "meta_inclination": 42.9997,
        "meta_ra_of_asc_node": 103.6848,
        "meta_arg_of_pericenter": 261.6445,
        "meta_mean_anomaly": 207.9491,
        "meta_ephemeris_type": 0,
        "meta_classification_type": "U",
        "meta_norad_cat_id": 66536,
        "meta_element_set_no": 999,
        "meta_rev_at_epoch": 362,
        "meta_bstar": -0.013667294,
        "meta_mean_motion_dot": -0.01792032,
        "meta_mean_motion_ddot": 0,
        "tle_line1": "1 66536U 25265W   25338.33335648 -.01792032  00000+0 -13667-1 0  9991",
        "tle_line2": "2 66536  42.9997 103.6848 0000856 261.6445 207.9491 15.74423536  3628"
      },
      "geometry": {
        "type": "Point",
        "coordinates": [
          -99.03341026311803,
          18.27026555912063
        ]
      }
    }
  ]
}